<?xml version="1.0" encoding="utf-8"?>
<ndm xmlns:xsi="http://www.w3.org/2001/XMLSchema-instance" xsi:noNamespaceSchemaLocation="http://sanaregistry.org/r/ndmxml/ndmxml-1.0-master.xsd">
<cdm id="CCSDS_CDM_VERS" version="1.0">
<header>
<CREATION_DATE>2020-02-02T02:24:00.000000</CREATION_DATE>
<ORIGINATOR></ORIGINATOR>
<MESSAGE_ID>00000A_00999A_2002030224_2002020224</MESSAGE_ID>
</header>
<body>
<relativeMetadataData>
<TCA>2020-02-03T02:24:00.003140</TCA>
<MISS_DISTANCE units="m">77.5092360827044</MISS_DISTANCE>
<RELATIVE_SPEED units="m/s">14549.4538191859</RELATIVE_SPEED>
<relativeStateVector>
<RELATIVE_POSITION_R units="m">60.7853840069637</RELATIVE_POSITION_R>
<RELATIVE_POSITION_T units="m">-1.03991871520437</RELATIVE_POSITION_T>
<RELATIVE_POSITION_N units="m">48.0805297216674</RELATIVE_POSITION_N>
<RELATIVE_VELOCITY_R units="m/s">-66.7474940432466</RELATIVE_VELOCITY_R>
<RELATIVE_VELOCITY_T units="m/s">-14540.5838033472</RELATIVE_VELOCITY_T>
<RELATIVE_VELOCITY_N units="m/s">503.561184464503</RELATIVE_VELOCITY_N>
</relativeStateVector>
<START_SCREEN_PERIOD>2020-02-02T02:24:00.000000Z</START_SCREEN_PERIOD>
<STOP_SCREEN_PERIOD>2020-02-07T02:24:00.000000Z</STOP_SCREEN_PERIOD>
<SCREEN_VOLUME_FRAME>RTN</SCREEN_VOLUME_FRAME>
<SCREEN_VOLUME_SHAPE>ELLIPSOID</SCREEN_VOLUME_SHAPE>
<SCREEN_VOLUME_X units="m">12000.0000000000</SCREEN_VOLUME_X>
<SCREEN_VOLUME_Y units="m">12000.0000000000</SCREEN_VOLUME_Y>
<SCREEN_VOLUME_Z units="m">12000.0000000000</SCREEN_VOLUME_Z>
<SCREEN_ENTRY_TIME>2020-02-03T02:23:59.178217Z</SCREEN_ENTRY_TIME>
<SCREEN_EXIT_TIME>2020-02-03T02:24:00.827729Z</SCREEN_EXIT_TIME>
<COLLISION_PROBABILITY>0.118110465661682E-003</COLLISION_PROBABILITY>
<COLLISION_PROBABILITY_METHOD>AKELLAALFRIEND-2000</COLLISION_PROBABILITY_METHOD>
</relativeMetadataData>
<segment>
<metadata>
<COMMENT>BASED ON 00000A_00999A_2002030224_2001310224</COMMENT>
<COMMENT>HBR FROM CDM AREA_PC</COMMENT>
<OBJECT>OBJECT1</OBJECT>
<OBJECT_DESIGNATOR>00000A</OBJECT_DESIGNATOR>
<CATALOG_NAME></CATALOG_NAME>
<OBJECT_NAME>DUMMY_A</OBJECT_NAME>
<INTERNATIONAL_DESIGNATOR>2000-000A</INTERNATIONAL_DESIGNATOR>
<EPHEMERIS_NAME>GMV/SSTODSW</EPHEMERIS_NAME>
<COVARIANCE_METHOD>DEFAULT</COVARIANCE_METHOD>
<MANEUVERABLE>N/A</MANEUVERABLE>
<REF_FRAME>EME2000</REF_FRAME>
</metadata>
<data>
<odParameters>
</odParameters>
<additionalParameters>
<AREA_PC units="m**2">314.000000000000</AREA_PC>
<CD_AREA_OVER_MASS units="m**2/kg">0.126105011081956E-001</CD_AREA_OVER_MASS>
<CR_AREA_OVER_MASS units="m**2/kg">0.764272794436094E-002</CR_AREA_OVER_MASS>
</additionalParameters>
<stateVector>
<X units="km">-5113.88377255446</X>
<Y units="km">27.0976105262789</Y>
<Z units="km">5544.99732058749</Z>
<X_DOT units="km/s">-5.34169055170902</X_DOT>
<Y_DOT units="km/s">-0.359928469341521</Y_DOT>
<Z_DOT units="km/s">-4.92358518931219</Z_DOT>
</stateVector>
<covarianceMatrix>
<CR_R units="m**2">166.024329330165</CR_R>
<CT_R units="m**2">-116.129888265005</CT_R>
<CT_T units="m**2">23360.1672393580</CT_T>
<CN_R units="m**2">-14.6378958891597</CN_R>
<CN_T units="m**2">2.27899774507903</CN_T>
<CN_N units="m**2">291.335437361969</CN_N>
<CRDOT_R units="m**2/s">0.232083504019467</CRDOT_R>
<CRDOT_T units="m**2/s">-22.3973454248061</CRDOT_T>
<CRDOT_N units="m**2/s">-0.124319389081594E-001</CRDOT_N>
<CRDOT_RDOT units="m**2/s**2">0.216479432748276E-001</CRDOT_RDOT>
<CTDOT_R units="m**2/s">-0.159841840386549</CTDOT_R>
<CTDOT_T units="m**2/s">0.902901175966291E-001</CTDOT_T>
<CTDOT_N units="m**2/s">0.141021922536952E-001</CTDOT_N>
<CTDOT_RDOT units="m**2/s**2">-0.202782391816358E-003</CTDOT_RDOT>
<CTDOT_TDOT units="m**2/s**2">0.153909917451651E-003</CTDOT_TDOT>
<CNDOT_R units="m**2/s">0.588427131890661E-002</CNDOT_R>
<CNDOT_T units="m**2/s">-0.123991240741514E-001</CNDOT_T>
<CNDOT_N units="m**2/s">-0.389595773358700E-001</CNDOT_N>
<CNDOT_RDOT units="m**2/s**2">0.162818627608603E-004</CNDOT_RDOT>
<CNDOT_TDOT units="m**2/s**2">-0.565822157380998E-005</CNDOT_TDOT>
<CNDOT_NDOT units="m**2/s**2">0.298401759960420E-003</CNDOT_NDOT>
</covarianceMatrix>
</data>
</segment>
<segment>
<metadata>
<COMMENT>BASED ON 00000A_00999A_2002030224_2001310224</COMMENT>
<COMMENT>HBR FROM CDM AREA_PC</COMMENT>
<OBJECT>OBJECT2</OBJECT>
<OBJECT_DESIGNATOR>00999A</OBJECT_DESIGNATOR>
<CATALOG_NAME></CATALOG_NAME>
<OBJECT_NAME>DUMMY_B</OBJECT_NAME>
<INTERNATIONAL_DESIGNATOR>2000-999A</INTERNATIONAL_DESIGNATOR>
<EPHEMERIS_NAME>GMV/SSTODSW</EPHEMERIS_NAME>
<COVARIANCE_METHOD>DEFAULT</COVARIANCE_METHOD>
<MANEUVERABLE>N/A</MANEUVERABLE>
<REF_FRAME>EME2000</REF_FRAME>
</metadata>
<data>
<odParameters>
</odParameters>
<additionalParameters>
<AREA_PC units="m**2">78.5398163397448</AREA_PC>
<CD_AREA_OVER_MASS units="m**2/kg">0.126105011081956E-001</CD_AREA_OVER_MASS>
<CR_AREA_OVER_MASS units="m**2/kg">0.764272794436094E-002</CR_AREA_OVER_MASS>
</additionalParameters>
<stateVector>
<X units="km">-5113.92258619383</X>
<Y units="km">27.0498590331835</Y>
<Z units="km">5545.04444784058</Z>
<X_DOT units="km/s">5.39817661547525</X_DOT>
<Y_DOT units="km/s">-0.143571778589103</Y_DOT>
<Z_DOT units="km/s">4.88941890985276</Z_DOT>
</stateVector>
<covarianceMatrix>
<CR_R units="m**2">158.053117074059</CR_R>
<CT_R units="m**2">-314.463877516242</CT_R>
<CT_T units="m**2">25162.8815889778</CT_T>
<CN_R units="m**2">0.222622479565985</CN_R>
<CN_T units="m**2">-12.6709210775333</CN_T>
<CN_N units="m**2">102.963602262146</CN_N>
<CRDOT_R units="m**2/s">0.166295482132915</CRDOT_R>
<CRDOT_T units="m**2/s">-24.1753317898276</CRDOT_T>
<CRDOT_N units="m**2/s">0.104435089488642E-001</CRDOT_N>
<CRDOT_RDOT units="m**2/s**2">0.233918783767926E-001</CRDOT_RDOT>
<CTDOT_R units="m**2/s">-0.150185666159700</CTDOT_R>
<CTDOT_T units="m**2/s">0.577385941359313E-001</CTDOT_T>
<CTDOT_N units="m**2/s">-0.123323331512461E-003</CTDOT_N>
<CTDOT_RDOT units="m**2/s**2">0.766939755910231E-004</CTDOT_RDOT>
<CTDOT_TDOT units="m**2/s**2">0.145082847064604E-003</CTDOT_TDOT>
<CNDOT_R units="m**2/s">0.214834859772113E-002</CNDOT_R>
<CNDOT_T units="m**2/s">0.764556296578129E-001</CNDOT_T>
<CNDOT_N units="m**2/s">0.153731800655922E-001</CNDOT_N>
<CNDOT_RDOT units="m**2/s**2">-0.644646892842984E-004</CNDOT_RDOT>
<CNDOT_TDOT units="m**2/s**2">-0.271697912383481E-005</CNDOT_TDOT>
<CNDOT_NDOT units="m**2/s**2">0.115838377307120E-003</CNDOT_NDOT>
</covarianceMatrix>
</data>
</segment>
</body>
</cdm>
</ndm>
